NORAD_CAT_ID,OBJECT_NAME,OBJECT_TYPE,EPOCH,MEAN_MOTION,ECCENTRICITY,INCLINATION,RA_OF_ASC_NODE,ARG_OF_PERICENTER,MEAN_ANOMALY,BSTAR,MEAN_MOTION_DOT,MEAN_MOTION_DDOT,TLE_LINE0,TLE_LINE1,TLE_LINE2,SEMIMAJOR_AXIS,PERIOD,APOGEE,PERIGEE,DECAYED
55790.0,STARLINK-5813,PAYLOAD,2024-04-08 11:46:36,14.98326349,0.000312,69.9999,169.8902,269.2386,90.8416,1.2967e-05,6.2e-07,0.0,0 STARLINK-5813,1 55790U 23028BB  24099.49070406  .00000062  00000-0  12967-4 0  9992,2 55790  69.9999 169.8902 0003120 269.2386  90.8416 14.98326349 62135,6950.204,96.107,574.238,569.901,0.0
55790.0,STARLINK-5813,PAYLOAD,2024-04-08 21:23:25,14.98327229,0.0002952,69.9997,168.8795,270.7472,89.3349,8.066e-05,8.69e-06,0.0,0 STARLINK-5813,1 55790U 23028BB  24099.89126250  .00000869  00000-0  80660-4 0  9995,2 55790  69.9997 168.8795 0002952 270.7472  89.3349 14.98327229 62201,6950.201,96.107,574.118,570.015,0.0
55790.0,STARLINK-5813,PAYLOAD,2024-04-09 10:12:29,14.98334986,0.0002898,69.9996,167.5331,271.6801,88.4026,2.3354e-05,1.86e-06,0.0,0 STARLINK-5813,1 55790U 23028BB  24100.42533912  .00000186  00000-0  23354-4 0  9993,2 55790  69.9996 167.5331 0002898 271.6801  88.4026 14.98334986 62274,6950.177,96.107,574.057,570.028,0.0
55790.0,STARLINK-5813,PAYLOAD,2024-04-10 10:14:30,14.98320983,0.0003136,69.9995,165.0085,270.7288,89.3512,0.0002131,2.45e-05,0.0,0 STARLINK-5813,1 55790U 23028BB  24101.42674008  .00002450  00000-0  21310-3 0  9991,2 55790  69.9995 165.0085 0003136 270.7288  89.3512 14.98320983 62426,6950.221,96.108,574.265,569.906,0.0
55790.0,STARLINK-5813,PAYLOAD,2024-04-10 21:27:26,14.98326211,0.0003062,70.0005,163.8304,269.6393,90.4415,-4.1106e-05,-5.83e-06,0.0,0 STARLINK-5813,1 55790U 23028BB  24101.89406168 -.00000583  00000-0 -41106-4 0  9995,2 55790  70.0005 163.8304 0003062 269.6393  90.4415 14.98326211 62507,6950.205,96.107,574.198,569.941,0.0
55790.0,STARLINK-5813,PAYLOAD,2024-04-11 11:52:39,14.9833815,0.0002811,70.0001,162.3173,267.9546,92.1291,-0.00020842,-2.579e-05,0.0,0 STARLINK-5813,1 55790U 23028BB  24102.49489936 -.00002579  00000-0 -20842-3 0  9996,2 55790  70.0001 162.3173 0002811 267.9546  92.1291 14.98338150 62587,6950.168,96.106,573.986,570.079,0.0
55790.0,STARLINK-5813,PAYLOAD,2024-04-11 13:28:47,14.98329766,0.0002982,70.0001,162.1487,271.438,88.6438,-5.793e-05,-7.84e-06,0.0,0 STARLINK-5813,1 55790U 23028BB  24102.56166109 -.00000784  00000-0 -57930-4 0  9993,2 55790  70.0001 162.1487 0002982 271.4380  88.6438 14.98329766 62607,6950.194,96.107,574.131,569.986,0.0
55790.0,STARLINK-5813,PAYLOAD,2024-04-12 11:54:40,14.98330636,0.0002976,70.0,159.7925,271.4246,88.6572,3.7864e-07,-8.8e-07,0.0,0 STARLINK-5813,1 55790U 23028BB  24103.49629875 -.00000088  00000-0  37864-6 0  9992,2 55790  70.0000 159.7925 0002976 271.4246  88.6572 14.98330636 62730,6950.191,96.107,574.124,569.988,0.0
55790.0,STARLINK-5813,PAYLOAD,2024-04-12 13:30:48,14.98331078,0.0002974,70.0,159.6243,271.5183,88.5635,5.9742e-06,-2.2e-07,0.0,0 STARLINK-5813,1 55790U 23028BB  24103.56305830 -.00000022  00000-0  59742-5 0  9998,2 55790  70.0000 159.6243 0002974 271.5183  88.5635 14.98331078 62753,6950.19,96.107,574.122,569.988,0.0
55790.0,STARLINK-5813,PAYLOAD,2024-04-13 11:56:40,14.98333269,0.0002943,70.0,157.2668,270.0285,90.0536,7.7816e-05,8.36e-06,0.0,0 STARLINK-5813,1 55790U 23028BB  24104.49769392  .00000836  00000-0  77816-4 0  9991,2 55790  70.0000 157.2668 0002943 270.0285  90.0536 14.98333269 62887,6950.183,96.107,574.093,570.002,0.0
55790.0,STARLINK-5813,PAYLOAD,2024-04-13 13:32:48,14.98333797,0.0002944,70.0,157.0986,270.2753,89.8069,8.1814e-05,8.83e-06,0.0,0 STARLINK-5813,1 55790U 23028BB  24104.56445333  .00000883  00000-0  81814-4 0  9990,2 55790  70.0000 157.0986 0002944 270.2753  89.8069 14.98333797 62907,6950.181,96.107,574.092,570.0,0.0
55790.0,STARLINK-5813,PAYLOAD,2024-04-14 11:58:42,14.98327731,0.0002759,70.0004,154.7433,263.6627,96.4218,-1.5239e-05,-2.75e-06,0.0,0 STARLINK-5813,1 55790U 23028BB  24105.49909931 -.00000275  00000-0 -15239-4 0  9997,2 55790  70.0004 154.7433 0002759 263.6627  96.4218 14.98327731 63038,6950.2,96.107,573.982,570.147,0.0
55790.0,STARLINK-5813,PAYLOAD,2024-04-14 13:34:50,14.98327773,0.0002767,70.0004,154.5748,265.7907,94.2936,-1.4996e-05,-2.72e-06,0.0,0 STARLINK-5813,1 55790U 23028BB  24105.56585945 -.00000272  00000-0 -14996-4 0  9996,2 55790  70.0004 154.5748 0002767 265.7907  94.2936 14.98327773 63059,6950.2,96.107,573.988,570.142,0.0
55790.0,STARLINK-5813,PAYLOAD,2024-04-15 12:00:42,14.9833402,0.0002784,70.0,152.2178,264.2843,95.7999,7.6815e-06,-1e-08,0.0,0 STARLINK-5813,1 55790U 23028BB  24106.50049308 -.00000001  00000-0  76815-5 0  9997,2 55790  70.0000 152.2178 0002784 264.2843  95.7999 14.98334020 63181,6950.18,96.107,573.98,570.111,0.0
55790.0,STARLINK-5813,PAYLOAD,2024-04-15 20:01:23,14.9832954,0.0002709,70.0009,151.3764,268.7332,91.3516,1.2832e-05,6e-07,0.0,0 STARLINK-5813,1 55790U 23028BB  24106.83429597  .00000060  00000-0  12832-4 0  9997,2 55790  70.0009 151.3764 0002709 268.7332  91.3516 14.98329540 63245,6950.194,96.107,573.942,570.177,0.0
55790.0,STARLINK-5813,PAYLOAD,2024-04-16 12:02:43,14.98328962,0.0002851,69.9997,149.6927,267.8896,92.1936,2.1425e-05,1.63e-06,0.0,0 STARLINK-5813,1 55790U 23028BB  24107.50189530  .00000163  00000-0  21425-4 0  9994,2 55790  69.9997 149.6927 0002851 267.8896  92.1936 14.98328962 63334,6950.196,96.107,574.043,570.08,0.0
55790.0,STARLINK-5813,PAYLOAD,2024-04-17 12:04:44,14.98334747,0.0002847,69.9995,147.1673,266.7402,93.3431,5.3895e-05,5.5e-06,0.0,0 STARLINK-5813,1 55790U 23028BB  24108.50328885  .00000550  00000-0  53895-4 0  9999,2 55790  69.9995 147.1673 0002847 266.7402  93.3431 14.98334747 63486,6950.178,96.107,574.022,570.064,0.0
55790.0,STARLINK-5813,PAYLOAD,2024-04-18 04:06:05,14.98319815,0.0002694,70.0011,145.4854,246.6467,113.4408,-7.0989e-05,-9.4e-06,0.0,0 STARLINK-5813,1 55790U 23028BB  24109.17090258 -.00000940  00000-0 -70989-4 0  9991,2 55790  70.0011 145.4854 0002694 246.6467 113.4408 14.98319815 63586,6950.224,96.108,573.962,570.217,0.0
55790.0,STARLINK-5813,PAYLOAD,2024-04-18 12:06:46,14.98316941,0.0002942,69.9991,144.6421,265.9906,94.0916,-0.00012129,-1.539e-05,0.0,0 STARLINK-5813,1 55790U 23028BB  24109.50470897 -.00001539  00000-0 -12129-3 0  9995,2 55790  69.9991 144.6421 0002942 265.9906  94.0916 14.98316941 63641,6950.233,96.108,574.143,570.054,0.0
55790.0,STARLINK-5813,PAYLOAD,2024-04-19 04:08:06,14.98330849,0.000281,69.9995,142.9602,255.6009,104.4838,-2.3413e-05,-3.72e-06,0.0,0 STARLINK-5813,1 55790U 23028BB  24110.17229990 -.00000372  00000-0 -23413-4 0  9999,2 55790  69.9995 142.9602 0002810 255.6009 104.4838 14.98330849 63733,6950.19,96.107,574.008,570.102,0.0
55790.0,STARLINK-5813,PAYLOAD,2024-04-19 12:08:46,14.98333355,0.0003181,69.9987,142.1183,263.6881,96.3916,-1.1413e-05,-2.29e-06,0.0,0 STARLINK-5813,1 55790U 23028BB  24110.50609824 -.00000229  00000-0 -11413-4 0  9992,2 55790  69.9987 142.1183 0003181 263.6881  96.3916 14.98333355 63796,6950.183,96.107,574.258,569.837,0.0
55790.0,STARLINK-5813,PAYLOAD,2024-04-20 04:10:06,14.98335685,0.0003278,69.9985,140.4341,266.8135,93.2649,0.00023975,2.769e-05,0.0,0 STARLINK-5813,1 55790U 23028BB  24111.17368881  .00002769  00000-0  23975-3 0  9995,2 55790  69.9985 140.4341 0003278 266.8135  93.2649 14.98335685 63882,6950.175,96.107,574.319,569.762,0.0
55790.0,STARLINK-5813,PAYLOAD,2024-04-20 12:10:46,14.98339413,0.0002735,69.9994,139.5912,268.4027,91.6819,0.00033692,3.93e-05,0.0,0 STARLINK-5813,1 55790U 23028BB  24111.50748326  .00003930  00000-0  33692-3 0  9996,2 55790  69.9994 139.5912 0002735 268.4027  91.6819 14.98339413 63941,6950.164,96.106,573.93,570.128,0.0
55790.0,STARLINK-5813,PAYLOAD,2024-04-21 04:12:09,14.98315983,0.000348,69.9991,137.9095,272.38,87.6961,-0.00017473,-2.177e-05,0.0,0 STARLINK-5813,1 55790U 23028BB  24112.17511252 -.00002177  00000-0 -17473-3 0  9999,2 55790  69.9991 137.9095 0003480 272.3800  87.6961 14.98315983 64033,6950.236,96.108,574.52,569.683,0.0
55790.0,STARLINK-5813,PAYLOAD,2024-04-21 12:12:50,14.98311114,0.0002594,70.0,137.0686,262.5971,97.4893,-0.00019671,-2.438e-05,0.0,0 STARLINK-5813,1 55790U 23028BB  24112.50891897 -.00002438  00000-0 -19671-3 0  9994,2 55790  70.0000 137.0686 0002594 262.5971  97.4893 14.98311114 64090,6950.251,96.108,573.919,570.313,0.0
55790.0,STARLINK-5813,PAYLOAD,2024-04-22 04:14:10,14.98325709,0.0002855,70.0,135.3865,266.8438,93.2394,-0.00022278,-2.75e-05,0.0,0 STARLINK-5813,1 55790U 23028BB  24113.17651313 -.00002750  00000-0 -22278-3 0  9999,2 55790  70.0000 135.3865 0002855 266.8438  93.2394 14.98325709 64180,6950.206,96.107,574.055,570.087,0.0
55790.0,STARLINK-5813,PAYLOAD,2024-04-22 10:38:42,14.98326274,0.0002577,69.9999,134.7122,258.5193,101.5676,-0.00019929,-2.47e-05,0.0,0 STARLINK-5813,1 55790U 23028BB  24113.44355276 -.00002470  00000-0 -19929-3 0  9996,2 55790  69.9999 134.7122 0002577 258.5193 101.5676 14.98326274 64230,6950.204,96.107,573.86,570.278,0.0
55790.0,STARLINK-5813,PAYLOAD,2024-04-23 04:16:11,14.98315234,0.0003072,69.9984,132.8591,273.0531,87.0276,0.00023421,2.702e-05,0.0,0 STARLINK-5813,1 55790U 23028BB  24114.17791026  .00002702  00000-0  23421-3 0  9992,2 55790  69.9984 132.8591 0003072 273.0531  87.0276 14.98315234 64331,6950.239,96.108,574.239,569.968,0.0
55790.0,STARLINK-5813,PAYLOAD,2024-04-23 10:40:43,14.98317579,0.0002674,69.9996,132.1859,274.4511,85.6343,0.00021983,2.53e-05,0.0,0 STARLINK-5813,1 55790U 23028BB  24114.44495242  .00002530  00000-0  21983-3 0  9993,2 55790  69.9996 132.1859 0002674 274.4511  85.6343 14.98317579 64382,6950.231,96.108,573.955,570.238,0.0
55790.0,STARLINK-5813,PAYLOAD,2024-04-24 02:42:03,14.98334672,0.0003122,69.9985,130.5023,271.2634,88.8167,0.00016634,1.892e-05,0.0,0 STARLINK-5813,1 55790U 23028BB  24115.11254231  .00001892  00000-0  16634-3 0  9996,2 55790  69.9985 130.5023 0003122 271.2634  88.8167 14.98334672 64477,6950.178,96.107,574.213,569.874,0.0
